IRIDIUM 159             
1 43578U 18061K   24127.77572337  .00000183  00000+0  58398-4 0  9998
2 43578  86.4011  19.0873 0002404  92.2041 267.9430 14.34217641302813
IRIDIUM 180             
1 43922U 19002A   24127.49615307  .00000149  00000+0  45977-4 0  9992
2 43922  86.3936 316.1052 0002238  89.8671 270.2781 14.34214079278389
IRIDIUM 176             
1 43923U 19002B   24127.79356434  .00000582  00000+0  88356-4 0  9998
2 43923  86.6065 316.0057 0002485  93.9535 266.1966 14.72241632285754
IRIDIUM 168             
1 43924U 19002C   24127.55956873  .00000145  00000+0  44679-4 0  9991
2 43924  86.3938 316.1343 0002140  92.2629 267.8812 14.34216156278373
IRIDIUM 173             
1 43925U 19002D   24127.61665161  .00000129  00000+0  38938-4 0  9999
2 43925  86.3935 316.0308 0002223  90.4311 269.7139 14.34216615278363
IRIDIUM 169             
1 43926U 19002E   24127.60052791  .00000566  00000+0  17857-3 0  9999
2 43926  86.4240 347.6540 0003418  48.9324 311.2169 14.38609582279293
IRIDIUM 172             
1 43927U 19002F   24127.88938280  .00000137  00000+0  41901-4 0  9998
2 43927  86.3934 315.9222 0002170  92.4401 267.7044 14.34217154278418
IRIDIUM 175             
1 43928U 19002G   24127.51584192  .00001731  00000+0  27045-3 0  9991
2 43928  86.1467 291.6069 0002326  88.4080 271.7403 14.72257596285708
