<?xml version="1.0" encoding="UTF-8"?>
<ndm xmlns:xsi="http://www.w3.org/2001/XMLSchema-instance" xsi:noNamespaceSchemaLocation="https://sanaregistry.org/r/ndmxml_unqualified/ndmxml-2.0.0-master-2.0.xsd">
<omm id="CCSDS_OMM_VERS" version="2.0">
<header><CREATION_DATE/><ORIGINATOR/></header><body><segment><metadata><OBJECT_NAME>IRIDIUM 159</OBJECT_NAME><OBJECT_ID>2018-061K</OBJECT_ID><CENTER_NAME>EARTH</CENTER_NAME><REF_FRAME>TEME</REF_FRAME><TIME_SYSTEM>UTC</TIME_SYSTEM><MEAN_ELEMENT_THEORY>SGP4</MEAN_ELEMENT_THEORY></metadata><data><meanElements><EPOCH>2024-05-06T18:37:02.499168</EPOCH><MEAN_MOTION>14.34217641</MEAN_MOTION><ECCENTRICITY>.0002404</ECCENTRICITY><INCLINATION>86.4011</INCLINATION><RA_OF_ASC_NODE>19.0873</RA_OF_ASC_NODE><ARG_OF_PERICENTER>92.2041</ARG_OF_PERICENTER><MEAN_ANOMALY>267.9430</MEAN_ANOMALY></meanElements><tleParameters><EPHEMERIS_TYPE>0</EPHEMERIS_TYPE><CLASSIFICATION_TYPE>U</CLASSIFICATION_TYPE><NORAD_CAT_ID>43578</NORAD_CAT_ID><ELEMENT_SET_NO>999</ELEMENT_SET_NO><REV_AT_EPOCH>30281</REV_AT_EPOCH><BSTAR>.58398E-4</BSTAR><MEAN_MOTION_DOT>.183E-5</MEAN_MOTION_DOT><MEAN_MOTION_DDOT>0</MEAN_MOTION_DDOT></tleParameters></data></segment></body></omm>
<omm id="CCSDS_OMM_VERS" version="2.0">
<header><CREATION_DATE/><ORIGINATOR/></header><body><segment><metadata><OBJECT_NAME>IRIDIUM 180</OBJECT_NAME><OBJECT_ID>2019-002A</OBJECT_ID><CENTER_NAME>EARTH</CENTER_NAME><REF_FRAME>TEME</REF_FRAME><TIME_SYSTEM>UTC</TIME_SYSTEM><MEAN_ELEMENT_THEORY>SGP4</MEAN_ELEMENT_THEORY></metadata><data><meanElements><EPOCH>2024-05-06T11:54:27.625248</EPOCH><MEAN_MOTION>14.34214079</MEAN_MOTION><ECCENTRICITY>.0002238</ECCENTRICITY><INCLINATION>86.3936</INCLINATION><RA_OF_ASC_NODE>316.1052</RA_OF_ASC_NODE><ARG_OF_PERICENTER>89.8671</ARG_OF_PERICENTER><MEAN_ANOMALY>270.2781</MEAN_ANOMALY></meanElements><tleParameters><EPHEMERIS_TYPE>0</EPHEMERIS_TYPE><CLASSIFICATION_TYPE>U</CLASSIFICATION_TYPE><NORAD_CAT_ID>43922</NORAD_CAT_ID><ELEMENT_SET_NO>999</ELEMENT_SET_NO><REV_AT_EPOCH>27838</REV_AT_EPOCH><BSTAR>.45977E-4</BSTAR><MEAN_MOTION_DOT>.149E-5</MEAN_MOTION_DOT><MEAN_MOTION_DDOT>0</MEAN_MOTION_DDOT></tleParameters></data></segment></body></omm>
<omm id="CCSDS_OMM_VERS" version="2.0">
<header><CREATION_DATE/><ORIGINATOR/></header><body><segment><metadata><OBJECT_NAME>IRIDIUM 176</OBJECT_NAME><OBJECT_ID>2019-002B</OBJECT_ID><CENTER_NAME>EARTH</CENTER_NAME><REF_FRAME>TEME</REF_FRAME><TIME_SYSTEM>UTC</TIME_SYSTEM><MEAN_ELEMENT_THEORY>SGP4</MEAN_ELEMENT_THEORY></metadata><data><meanElements><EPOCH>2024-05-06T19:02:43.958976</EPOCH><MEAN_MOTION>14.72241632</MEAN_MOTION><ECCENTRICITY>.0002485</ECCENTRICITY><INCLINATION>86.6065</INCLINATION><RA_OF_ASC_NODE>316.0057</RA_OF_ASC_NODE><ARG_OF_PERICENTER>93.9535</ARG_OF_PERICENTER><MEAN_ANOMALY>266.1966</MEAN_ANOMALY></meanElements><tleParameters><EPHEMERIS_TYPE>0</EPHEMERIS_TYPE><CLASSIFICATION_TYPE>U</CLASSIFICATION_TYPE><NORAD_CAT_ID>43923</NORAD_CAT_ID><ELEMENT_SET_NO>999</ELEMENT_SET_NO><REV_AT_EPOCH>28575</REV_AT_EPOCH><BSTAR>.88356E-4</BSTAR><MEAN_MOTION_DOT>.582E-5</MEAN_MOTION_DOT><MEAN_MOTION_DDOT>0</MEAN_MOTION_DDOT></tleParameters></data></segment></body></omm>
<omm id="CCSDS_OMM_VERS" version="2.0">
<header><CREATION_DATE/><ORIGINATOR/></header><body><segment><metadata><OBJECT_NAME>IRIDIUM 168</OBJECT_NAME><OBJECT_ID>2019-002C</OBJECT_ID><CENTER_NAME>EARTH</CENTER_NAME><REF_FRAME>TEME</REF_FRAME><TIME_SYSTEM>UTC</TIME_SYSTEM><MEAN_ELEMENT_THEORY>SGP4</MEAN_ELEMENT_THEORY></metadata><data><meanElements><EPOCH>2024-05-06T13:25:46.738272</EPOCH><MEAN_MOTION>14.34216156</MEAN_MOTION><ECCENTRICITY>.000214</ECCENTRICITY><INCLINATION>86.3938</INCLINATION><RA_OF_ASC_NODE>316.1343</RA_OF_ASC_NODE><ARG_OF_PERICENTER>92.2629</ARG_OF_PERICENTER><MEAN_ANOMALY>267.8812</MEAN_ANOMALY></meanElements><tleParameters><EPHEMERIS_TYPE>0</EPHEMERIS_TYPE><CLASSIFICATION_TYPE>U</CLASSIFICATION_TYPE><NORAD_CAT_ID>43924</NORAD_CAT_ID><ELEMENT_SET_NO>999</ELEMENT_SET_NO><REV_AT_EPOCH>27837</REV_AT_EPOCH><BSTAR>.44679E-4</BSTAR><MEAN_MOTION_DOT>.145E-5</MEAN_MOTION_DOT><MEAN_MOTION_DDOT>0</MEAN_MOTION_DDOT></tleParameters></data></segment></body></omm>
<omm id="CCSDS_OMM_VERS" version="2.0">
<header><CREATION_DATE/><ORIGINATOR/></header><body><segment><metadata><OBJECT_NAME>IRIDIUM 173</OBJECT_NAME><OBJECT_ID>2019-002D</OBJECT_ID><CENTER_NAME>EARTH</CENTER_NAME><REF_FRAME>TEME</REF_FRAME><TIME_SYSTEM>UTC</TIME_SYSTEM><MEAN_ELEMENT_THEORY>SGP4</MEAN_ELEMENT_THEORY></metadata><data><meanElements><EPOCH>2024-05-06T14:47:58.699104</EPOCH><MEAN_MOTION>14.34216615</MEAN_MOTION><ECCENTRICITY>.0002223</ECCENTRICITY><INCLINATION>86.3935</INCLINATION><RA_OF_ASC_NODE>316.0308</RA_OF_ASC_NODE><ARG_OF_PERICENTER>90.4311</ARG_OF_PERICENTER><MEAN_ANOMALY>269.7139</MEAN_ANOMALY></meanElements><tleParameters><EPHEMERIS_TYPE>0</EPHEMERIS_TYPE><CLASSIFICATION_TYPE>U</CLASSIFICATION_TYPE><NORAD_CAT_ID>43925</NORAD_CAT_ID><ELEMENT_SET_NO>999</ELEMENT_SET_NO><REV_AT_EPOCH>27836</REV_AT_EPOCH><BSTAR>.38938E-4</BSTAR><MEAN_MOTION_DOT>.129E-5</MEAN_MOTION_DOT><MEAN_MOTION_DDOT>0</MEAN_MOTION_DDOT></tleParameters></data></segment></body></omm>
<omm id="CCSDS_OMM_VERS" version="2.0">
<header><CREATION_DATE/><ORIGINATOR/></header><body><segment><metadata><OBJECT_NAME>IRIDIUM 169</OBJECT_NAME><OBJECT_ID>2019-002E</OBJECT_ID><CENTER_NAME>EARTH</CENTER_NAME><REF_FRAME>TEME</REF_FRAME><TIME_SYSTEM>UTC</TIME_SYSTEM><MEAN_ELEMENT_THEORY>SGP4</MEAN_ELEMENT_THEORY></metadata><data><meanElements><EPOCH>2024-05-06T14:24:45.611424</EPOCH><MEAN_MOTION>14.38609582</MEAN_MOTION><ECCENTRICITY>.0003418</ECCENTRICITY><INCLINATION>86.4240</INCLINATION><RA_OF_ASC_NODE>347.6540</RA_OF_ASC_NODE><ARG_OF_PERICENTER>48.9324</ARG_OF_PERICENTER><MEAN_ANOMALY>311.2169</MEAN_ANOMALY></meanElements><tleParameters><EPHEMERIS_TYPE>0</EPHEMERIS_TYPE><CLASSIFICATION_TYPE>U</CLASSIFICATION_TYPE><NORAD_CAT_ID>43926</NORAD_CAT_ID><ELEMENT_SET_NO>999</ELEMENT_SET_NO><REV_AT_EPOCH>27929</REV_AT_EPOCH><BSTAR>.17857E-3</BSTAR><MEAN_MOTION_DOT>.566E-5</MEAN_MOTION_DOT><MEAN_MOTION_DDOT>0</MEAN_MOTION_DDOT></tleParameters></data></segment></body></omm>
<omm id="CCSDS_OMM_VERS" version="2.0">
<header><CREATION_DATE/><ORIGINATOR/></header><body><segment><metadata><OBJECT_NAME>IRIDIUM 172</OBJECT_NAME><OBJECT_ID>2019-002F</OBJECT_ID><CENTER_NAME>EARTH</CENTER_NAME><REF_FRAME>TEME</REF_FRAME><TIME_SYSTEM>UTC</TIME_SYSTEM><MEAN_ELEMENT_THEORY>SGP4</MEAN_ELEMENT_THEORY></metadata><data><meanElements><EPOCH>2024-05-06T21:20:42.673920</EPOCH><MEAN_MOTION>14.34217154</MEAN_MOTION><ECCENTRICITY>.000217</ECCENTRICITY><INCLINATION>86.3934</INCLINATION><RA_OF_ASC_NODE>315.9222</RA_OF_ASC_NODE><ARG_OF_PERICENTER>92.4401</ARG_OF_PERICENTER><MEAN_ANOMALY>267.7044</MEAN_ANOMALY></meanElements><tleParameters><EPHEMERIS_TYPE>0</EPHEMERIS_TYPE><CLASSIFICATION_TYPE>U</CLASSIFICATION_TYPE><NORAD_CAT_ID>43927</NORAD_CAT_ID><ELEMENT_SET_NO>999</ELEMENT_SET_NO><REV_AT_EPOCH>27841</REV_AT_EPOCH><BSTAR>.41901E-4</BSTAR><MEAN_MOTION_DOT>.137E-5</MEAN_MOTION_DOT><MEAN_MOTION_DDOT>0</MEAN_MOTION_DDOT></tleParameters></data></segment></body></omm>
<omm id="CCSDS_OMM_VERS" version="2.0">
<header><CREATION_DATE/><ORIGINATOR/></header><body><segment><metadata><OBJECT_NAME>IRIDIUM 175</OBJECT_NAME><OBJECT_ID>2019-002G</OBJECT_ID><CENTER_NAME>EARTH</CENTER_NAME><REF_FRAME>TEME</REF_FRAME><TIME_SYSTEM>UTC</TIME_SYSTEM><MEAN_ELEMENT_THEORY>SGP4</MEAN_ELEMENT_THEORY></metadata><data><meanElements><EPOCH>2024-05-06T12:22:48.741888</EPOCH><MEAN_MOTION>14.72257596</MEAN_MOTION><ECCENTRICITY>.0002326</ECCENTRICITY><INCLINATION>86.1467</INCLINATION><RA_OF_ASC_NODE>291.6069</RA_OF_ASC_NODE><ARG_OF_PERICENTER>88.4080</ARG_OF_PERICENTER><MEAN_ANOMALY>271.7403</MEAN_ANOMALY></meanElements><tleParameters><EPHEMERIS_TYPE>0</EPHEMERIS_TYPE><CLASSIFICATION_TYPE>U</CLASSIFICATION_TYPE><NORAD_CAT_ID>43928</NORAD_CAT_ID><ELEMENT_SET_NO>999</ELEMENT_SET_NO><REV_AT_EPOCH>28570</REV_AT_EPOCH><BSTAR>.27045E-3</BSTAR><MEAN_MOTION_DOT>.1731E-4</MEAN_MOTION_DOT><MEAN_MOTION_DDOT>0</MEAN_MOTION_DDOT></tleParameters></data></segment></body></omm>

</ndm>
